H-2A R/B                
1 28932U 06002B   26143.39987326  .00004638  00000+0  22652-3 0  9995
2 28932  98.2541 296.9977 0050534 348.4663  11.5406 15.17721237105767
RESURS-DK 1             
1 29228U 06021A   26143.51009610  .00001315  00000+0  80221-4 0  9996
2 29228  69.9322  43.4281 0005172 321.7919  38.2880 15.13093227 98846
CZ-4B R/B               
1 29507U 06046C   26143.39662601  .00003729  00000+0  18665-3 0  9997
2 29507  97.5471 188.0821 0032891  11.5349 348.6630 15.17564143 71377
CZ-2C R/B               
1 31114U 07010B   26143.54377302  .00000067  00000+0  49410-4 0  9999
2 31114  98.4074 253.1034 0060119  76.9746 283.8134 14.20269407990347
COSMO-SKYMED 1          
1 31598U 07023A   26143.53793332  .00002121  00000+0  18975-3 0  9997
2 31598  97.8858 335.1885 0001502  97.4211 262.7180 14.96963892 26100
COSMOS 2428             
1 31792U 07029A   26143.43594572 -.00000246  00000+0 -10648-3 0  9990
2 31792  70.9395  46.4444 0007680 181.4767 178.6333 14.12935396974653
SL-16 R/B               
1 31793U 07029B   26143.38646639 -.00000286  00000+0 -12348-3 0  9990
2 31793  70.9766  15.3649 0002694 265.3433 267.7482 14.14847975975934
KORONAS-FOTON           
1 33504U 09003A   26143.40930396  .00009733  00000+0  20445-3 0  9996
2 33504  82.4302 198.0947 0009141 237.3367 122.7000 15.45134508957278
CZ-2C R/B               
1 37731U 11030B   26143.46501332  .00000781  00000+0  10427-3 0  9998
2 37731  97.8643  99.3017 0053808 106.4348   6.7775 14.81402772801163
H-2A R/B                
1 38341U 12025E   26143.47037091  .00002360  00000+0  21465-3 0  9997
2 38341  98.4819 116.5847 0045548  68.8056 291.8021 14.95559129759397
SHIJIAN-16 (SJ-16)      
1 39358U 13057A   26143.50589495  .00001451  00000+0  14366-3 0  9998
2 39358  74.9738  43.4272 0017000 287.5135  72.4195 14.92541322682668
