CCSDS_OMM_VERS = 2.0
CREATION_DATE  = 
ORIGINATOR     = 

OBJECT_NAME    = H-2A R/B
OBJECT_ID      = 2006-002B
CENTER_NAME    = EARTH
REF_FRAME      = TEME
TIME_SYSTEM    = UTC
MEAN_ELEMENT_THEORY = SGP/SGP4

EPOCH          = 2026-05-23T09:35:49.049664
MEAN_MOTION    = 15.17721237
ECCENTRICITY   = .0050534
INCLINATION    = 98.2541
RA_OF_ASC_NODE = 296.9977
ARG_OF_PERICENTER = 348.4663
MEAN_ANOMALY   = 11.5406

EPHEMERIS_TYPE = 0
CLASSIFICATION_TYPE = U
NORAD_CAT_ID   = 28932
ELEMENT_SET_NO = 999
REV_AT_EPOCH   = 10576
BSTAR          = .22652E-3
MEAN_MOTION_DOT = .4638E-4
MEAN_MOTION_DDOT = 0

CCSDS_OMM_VERS = 2.0
CREATION_DATE  = 
ORIGINATOR     = 

OBJECT_NAME    = RESURS-DK 1
OBJECT_ID      = 2006-021A
CENTER_NAME    = EARTH
REF_FRAME      = TEME
TIME_SYSTEM    = UTC
MEAN_ELEMENT_THEORY = SGP/SGP4

EPOCH          = 2026-05-23T12:14:32.303040
MEAN_MOTION    = 15.13093227
ECCENTRICITY   = .0005172
INCLINATION    = 69.9322
RA_OF_ASC_NODE = 43.4281
ARG_OF_PERICENTER = 321.7919
MEAN_ANOMALY   = 38.2880

EPHEMERIS_TYPE = 0
CLASSIFICATION_TYPE = U
NORAD_CAT_ID   = 29228
ELEMENT_SET_NO = 999
REV_AT_EPOCH   = 9884
BSTAR          = .80221E-4
MEAN_MOTION_DOT = .1315E-4
MEAN_MOTION_DDOT = 0

CCSDS_OMM_VERS = 2.0
CREATION_DATE  = 
ORIGINATOR     = 

OBJECT_NAME    = CZ-4B R/B
OBJECT_ID      = 2006-046C
CENTER_NAME    = EARTH
REF_FRAME      = TEME
TIME_SYSTEM    = UTC
MEAN_ELEMENT_THEORY = SGP/SGP4

EPOCH          = 2026-05-23T09:31:08.487264
MEAN_MOTION    = 15.17564143
ECCENTRICITY   = .0032891
INCLINATION    = 97.5471
RA_OF_ASC_NODE = 188.0821
ARG_OF_PERICENTER = 11.5349
MEAN_ANOMALY   = 348.6630

EPHEMERIS_TYPE = 0
CLASSIFICATION_TYPE = U
NORAD_CAT_ID   = 29507
ELEMENT_SET_NO = 999
REV_AT_EPOCH   = 7137
BSTAR          = .18665E-3
MEAN_MOTION_DOT = .3729E-4
MEAN_MOTION_DDOT = 0

CCSDS_OMM_VERS = 2.0
CREATION_DATE  = 
ORIGINATOR     = 

OBJECT_NAME    = CZ-2C R/B
OBJECT_ID      = 2007-010B
CENTER_NAME    = EARTH
REF_FRAME      = TEME
TIME_SYSTEM    = UTC
MEAN_ELEMENT_THEORY = SGP/SGP4

EPOCH          = 2026-05-23T13:03:01.988928
MEAN_MOTION    = 14.20269407
ECCENTRICITY   = .0060119
INCLINATION    = 98.4074
RA_OF_ASC_NODE = 253.1034
ARG_OF_PERICENTER = 76.9746
MEAN_ANOMALY   = 283.8134

EPHEMERIS_TYPE = 0
CLASSIFICATION_TYPE = U
NORAD_CAT_ID   = 31114
ELEMENT_SET_NO = 999
REV_AT_EPOCH   = 99034
BSTAR          = .4941E-4
MEAN_MOTION_DOT = .67E-6
MEAN_MOTION_DDOT = 0

CCSDS_OMM_VERS = 2.0
CREATION_DATE  = 
ORIGINATOR     = 

OBJECT_NAME    = COSMO-SKYMED 1
OBJECT_ID      = 2007-023A
CENTER_NAME    = EARTH
REF_FRAME      = TEME
TIME_SYSTEM    = UTC
MEAN_ELEMENT_THEORY = SGP/SGP4

EPOCH          = 2026-05-23T12:54:37.438848
MEAN_MOTION    = 14.96963892
ECCENTRICITY   = .0001502
INCLINATION    = 97.8858
RA_OF_ASC_NODE = 335.1885
ARG_OF_PERICENTER = 97.4211
MEAN_ANOMALY   = 262.7180

EPHEMERIS_TYPE = 0
CLASSIFICATION_TYPE = U
NORAD_CAT_ID   = 31598
ELEMENT_SET_NO = 999
REV_AT_EPOCH   = 2610
BSTAR          = .18975E-3
MEAN_MOTION_DOT = .2121E-4
MEAN_MOTION_DDOT = 0

CCSDS_OMM_VERS = 2.0
CREATION_DATE  = 
ORIGINATOR     = 

OBJECT_NAME    = COSMOS 2428
OBJECT_ID      = 2007-029A
CENTER_NAME    = EARTH
REF_FRAME      = TEME
TIME_SYSTEM    = UTC
MEAN_ELEMENT_THEORY = SGP/SGP4

EPOCH          = 2026-05-23T10:27:45.710208
MEAN_MOTION    = 14.12935396
ECCENTRICITY   = .000768
INCLINATION    = 70.9395
RA_OF_ASC_NODE = 46.4444
ARG_OF_PERICENTER = 181.4767
MEAN_ANOMALY   = 178.6333

EPHEMERIS_TYPE = 0
CLASSIFICATION_TYPE = U
NORAD_CAT_ID   = 31792
ELEMENT_SET_NO = 999
REV_AT_EPOCH   = 97465
BSTAR          = -.10648E-3
MEAN_MOTION_DOT = -.246E-5
MEAN_MOTION_DDOT = 0

CCSDS_OMM_VERS = 2.0
CREATION_DATE  = 
ORIGINATOR     = 

OBJECT_NAME    = SL-16 R/B
OBJECT_ID      = 2007-029B
CENTER_NAME    = EARTH
REF_FRAME      = TEME
TIME_SYSTEM    = UTC
MEAN_ELEMENT_THEORY = SGP/SGP4

EPOCH          = 2026-05-23T09:16:30.696096
MEAN_MOTION    = 14.14847975
ECCENTRICITY   = .0002694
INCLINATION    = 70.9766
RA_OF_ASC_NODE = 15.3649
ARG_OF_PERICENTER = 265.3433
MEAN_ANOMALY   = 267.7482

EPHEMERIS_TYPE = 0
CLASSIFICATION_TYPE = U
NORAD_CAT_ID   = 31793
ELEMENT_SET_NO = 999
REV_AT_EPOCH   = 97593
BSTAR          = -.12348E-3
MEAN_MOTION_DOT = -.286E-5
MEAN_MOTION_DDOT = 0

CCSDS_OMM_VERS = 2.0
CREATION_DATE  = 
ORIGINATOR     = 

OBJECT_NAME    = KORONAS-FOTON
OBJECT_ID      = 2009-003A
CENTER_NAME    = EARTH
REF_FRAME      = TEME
TIME_SYSTEM    = UTC
MEAN_ELEMENT_THEORY = SGP/SGP4

EPOCH          = 2026-05-23T09:49:23.862144
MEAN_MOTION    = 15.45134508
ECCENTRICITY   = .0009141
INCLINATION    = 82.4302
RA_OF_ASC_NODE = 198.0947
ARG_OF_PERICENTER = 237.3367
MEAN_ANOMALY   = 122.7000

EPHEMERIS_TYPE = 0
CLASSIFICATION_TYPE = U
NORAD_CAT_ID   = 33504
ELEMENT_SET_NO = 999
REV_AT_EPOCH   = 95727
BSTAR          = .20445E-3
MEAN_MOTION_DOT = .9733E-4
MEAN_MOTION_DDOT = 0

CCSDS_OMM_VERS = 2.0
CREATION_DATE  = 
ORIGINATOR     = 

OBJECT_NAME    = CZ-2C R/B
OBJECT_ID      = 2011-030B
CENTER_NAME    = EARTH
REF_FRAME      = TEME
TIME_SYSTEM    = UTC
MEAN_ELEMENT_THEORY = SGP/SGP4

EPOCH          = 2026-05-23T11:09:37.150848
MEAN_MOTION    = 14.81402772
ECCENTRICITY   = .0053808
INCLINATION    = 97.8643
RA_OF_ASC_NODE = 99.3017
ARG_OF_PERICENTER = 106.4348
MEAN_ANOMALY   = 6.7775

EPHEMERIS_TYPE = 0
CLASSIFICATION_TYPE = U
NORAD_CAT_ID   = 37731
ELEMENT_SET_NO = 999
REV_AT_EPOCH   = 80116
BSTAR          = .10427E-3
MEAN_MOTION_DOT = .781E-5
MEAN_MOTION_DDOT = 0

CCSDS_OMM_VERS = 2.0
CREATION_DATE  = 
ORIGINATOR     = 

OBJECT_NAME    = H-2A R/B
OBJECT_ID      = 2012-025E
CENTER_NAME    = EARTH
REF_FRAME      = TEME
TIME_SYSTEM    = UTC
MEAN_ELEMENT_THEORY = SGP/SGP4

EPOCH          = 2026-05-23T11:17:20.046624
MEAN_MOTION    = 14.95559129
ECCENTRICITY   = .0045548
INCLINATION    = 98.4819
RA_OF_ASC_NODE = 116.5847
ARG_OF_PERICENTER = 68.8056
MEAN_ANOMALY   = 291.8021

EPHEMERIS_TYPE = 0
CLASSIFICATION_TYPE = U
NORAD_CAT_ID   = 38341
ELEMENT_SET_NO = 999
REV_AT_EPOCH   = 75939
BSTAR          = .21465E-3
MEAN_MOTION_DOT = .236E-4
MEAN_MOTION_DDOT = 0

CCSDS_OMM_VERS = 2.0
CREATION_DATE  = 
ORIGINATOR     = 

OBJECT_NAME    = SHIJIAN-16 (SJ-16)
OBJECT_ID      = 2013-057A
CENTER_NAME    = EARTH
REF_FRAME      = TEME
TIME_SYSTEM    = UTC
MEAN_ELEMENT_THEORY = SGP/SGP4

EPOCH          = 2026-05-23T12:08:29.323680
MEAN_MOTION    = 14.92541322
ECCENTRICITY   = .0017
INCLINATION    = 74.9738
RA_OF_ASC_NODE = 43.4272
ARG_OF_PERICENTER = 287.5135
MEAN_ANOMALY   = 72.4195

EPHEMERIS_TYPE = 0
CLASSIFICATION_TYPE = U
NORAD_CAT_ID   = 39358
ELEMENT_SET_NO = 999
REV_AT_EPOCH   = 68266
BSTAR          = .14366E-3
MEAN_MOTION_DOT = .1451E-4
MEAN_MOTION_DDOT = 0

